[{"COMMENT":"GENERATED VIA SPACETRACK.ORG API","ORIGINATOR":"18 SPCS","NORAD_CAT_ID":"43476","OBJECT_NAME":"GRACE-FO 1","OBJECT_TYPE":"PAYLOAD","CLASSIFICATION_TYPE":"U","INTLDES":"18047A","EPOCH":"2024-01-08 14:35:16","EPOCH_MICROSECONDS":"655424","MEAN_MOTION":"15.27795159","ECCENTRICITY":"0.0012146","INCLINATION":"88.9837","RA_OF_ASC_NODE":"321.1772","ARG_OF_PERICENTER":"340.553","MEAN_ANOMALY":"19.5255","EPHEMERIS_TYPE":"0","ELEMENT_SET_NO":"999","REV_AT_EPOCH":"31334","BSTAR":"0.0001543","MEAN_MOTION_DOT":"0.00004223","MEAN_MOTION_DDOT":"0","FILE":"4156666","TLE_LINE0":"0 GRACE-FO 1","TLE_LINE1":"1 43476U 18047A   24008.60783166  .00004223  00000-0  15430-3 0  9992","TLE_LINE2":"2 43476  88.9837 321.1772 0012146 340.5530  19.5255 15.27795159313348","OBJECT_ID":"2018-047A","OBJECT_NUMBER":"43476","SEMIMAJOR_AXIS":"6860.542","PERIOD":"94.253","APOGEE":"490.740","PERIGEE":"474.074","DECAYED":"0"},{"COMMENT":"GENERATED VIA SPACETRACK.ORG API","ORIGINATOR":"18 SPCS","NORAD_CAT_ID":"43476","OBJECT_NAME":"GRACE-FO 1","OBJECT_TYPE":"PAYLOAD","CLASSIFICATION_TYPE":"U","INTLDES":"18047A","EPOCH":"2024-01-08 19:18:14","EPOCH_MICROSECONDS":"134464","MEAN_MOTION":"15.27796895","ECCENTRICITY":"0.0012108","INCLINATION":"88.9838","RA_OF_ASC_NODE":"321.1503","ARG_OF_PERICENTER":"339.7281","MEAN_ANOMALY":"20.3486","EPHEMERIS_TYPE":"0","ELEMENT_SET_NO":"999","REV_AT_EPOCH":"31337","BSTAR":"0.00015572","MEAN_MOTION_DOT":"0.00004261","MEAN_MOTION_DDOT":"0","FILE":"4156694","TLE_LINE0":"0 GRACE-FO 1","TLE_LINE1":"1 43476U 18047A   24008.80433026  .00004261  00000-0  15572-3 0  9990","TLE_LINE2":"2 43476  88.9838 321.1503 0012108 339.7281  20.3486 15.27796895313379","OBJECT_ID":"2018-047A","OBJECT_NUMBER":"43476","SEMIMAJOR_AXIS":"6860.537","PERIOD":"94.253","APOGEE":"490.708","PERIGEE":"474.095","DECAYED":"0"},{"COMMENT":"GENERATED VIA SPACETRACK.ORG API","ORIGINATOR":"18 SPCS","NORAD_CAT_ID":"43476","OBJECT_NAME":"GRACE-FO 1","OBJECT_TYPE":"PAYLOAD","CLASSIFICATION_TYPE":"U","INTLDES":"18047A","EPOCH":"2024-01-08 22:26:52","EPOCH_MICROSECONDS":"429920","MEAN_MOTION":"15.27798271","ECCENTRICITY":"0.0012087","INCLINATION":"88.9838","RA_OF_ASC_NODE":"321.1324","ARG_OF_PERICENTER":"339.1941","MEAN_ANOMALY":"20.8815","EPHEMERIS_TYPE":"0","ELEMENT_SET_NO":"999","REV_AT_EPOCH":"31339","BSTAR":"0.00015908","MEAN_MOTION_DOT":"0.00004353","MEAN_MOTION_DDOT":"0","FILE":"4156930","TLE_LINE0":"0 GRACE-FO 1","TLE_LINE1":"1 43476U 18047A   24008.93532905  .00004353  00000-0  15908-3 0  9995","TLE_LINE2":"2 43476  88.9838 321.1324 0012087 339.1941  20.8815 15.27798271313396","OBJECT_ID":"2018-047A","OBJECT_NUMBER":"43476","SEMIMAJOR_AXIS":"6860.533","PERIOD":"94.253","APOGEE":"490.690","PERIGEE":"474.105","DECAYED":"0"},{"COMMENT":"GENERATED VIA SPACETRACK.ORG API","ORIGINATOR":"18 SPCS","NORAD_CAT_ID":"43476","OBJECT_NAME":"GRACE-FO 1","OBJECT_TYPE":"PAYLOAD","CLASSIFICATION_TYPE":"U","INTLDES":"18047A","EPOCH":"2024-01-09 14:10:03","EPOCH_MICROSECONDS":"830304","MEAN_MOTION":"15.27804407","ECCENTRICITY":"0.0011955","INCLINATION":"88.984","RA_OF_ASC_NODE":"321.0427","ARG_OF_PERICENTER":"336.4216","MEAN_ANOMALY":"23.6484","EPHEMERIS_TYPE":"0","ELEMENT_SET_NO":"999","REV_AT_EPOCH":"31349","BSTAR":"0.00016931","MEAN_MOTION_DOT":"0.00004631","MEAN_MOTION_DDOT":"0","FILE":"4157515","TLE_LINE0":"0 GRACE-FO 1","TLE_LINE1":"1 43476U 18047A   24009.59032211  .00004631  00000-0  16931-3 0  9999","TLE_LINE2":"2 43476  88.9840 321.0427 0011955 336.4216  23.6484 15.27804407313493","OBJECT_ID":"2018-047A","OBJECT_NUMBER":"43476","SEMIMAJOR_AXIS":"6860.514","PERIOD":"94.253","APOGEE":"490.581","PERIGEE":"474.177","DECAYED":"0"},{"COMMENT":"GENERATED VIA SPACETRACK.ORG API","ORIGINATOR":"18 SPCS","NORAD_CAT_ID":"43476","OBJECT_NAME":"GRACE-FO 1","OBJECT_TYPE":"PAYLOAD","CLASSIFICATION_TYPE":"U","INTLDES":"18047A","EPOCH":"2024-01-09 20:27:20","EPOCH_MICROSECONDS":"320128","MEAN_MOTION":"15.2780689","ECCENTRICITY":"0.0011891","INCLINATION":"88.9841","RA_OF_ASC_NODE":"321.007","ARG_OF_PERICENTER":"335.2591","MEAN_ANOMALY":"24.8087","EPHEMERIS_TYPE":"0","ELEMENT_SET_NO":"999","REV_AT_EPOCH":"31353","BSTAR":"0.00016865","MEAN_MOTION_DOT":"0.00004614","MEAN_MOTION_DDOT":"0","FILE":"4157582","TLE_LINE0":"0 GRACE-FO 1","TLE_LINE1":"1 43476U 18047A   24009.85231852  .00004614  00000-0  16865-3 0  9997","TLE_LINE2":"2 43476  88.9841 321.0070 0011891 335.2591  24.8087 15.27806890313535","OBJECT_ID":"2018-047A","OBJECT_NUMBER":"43476","SEMIMAJOR_AXIS":"6860.507","PERIOD":"94.253","APOGEE":"490.530","PERIGEE":"474.214","DECAYED":"0"},{"COMMENT":"GENERATED VIA SPACETRACK.ORG API","ORIGINATOR":"18 SPCS","NORAD_CAT_ID":"43476","OBJECT_NAME":"GRACE-FO 1","OBJECT_TYPE":"PAYLOAD","CLASSIFICATION_TYPE":"U","INTLDES":"18047A","EPOCH":"2024-01-09 22:01:39","EPOCH_MICROSECONDS":"435456","MEAN_MOTION":"15.27807468","ECCENTRICITY":"0.0011876","INCLINATION":"88.9841","RA_OF_ASC_NODE":"320.998","ARG_OF_PERICENTER":"334.9606","MEAN_ANOMALY":"25.1066","EPHEMERIS_TYPE":"0","ELEMENT_SET_NO":"999","REV_AT_EPOCH":"31354","BSTAR":"0.00016863","MEAN_MOTION_DOT":"0.00004613","MEAN_MOTION_DDOT":"0","FILE":"4157773","TLE_LINE0":"0 GRACE-FO 1","TLE_LINE1":"1 43476U 18047A   24009.91781754  .00004613  00000-0  16863-3 0  9992","TLE_LINE2":"2 43476  88.9841 320.9980 0011876 334.9606  25.1066 15.27807468313543","OBJECT_ID":"2018-047A","OBJECT_NUMBER":"43476","SEMIMAJOR_AXIS":"6860.505","PERIOD":"94.253","APOGEE":"490.518","PERIGEE":"474.223","DECAYED":"0"},{"COMMENT":"GENERATED VIA SPACETRACK.ORG API","ORIGINATOR":"18 SPCS","NORAD_CAT_ID":"43476","OBJECT_NAME":"GRACE-FO 1","OBJECT_TYPE":"PAYLOAD","CLASSIFICATION_TYPE":"U","INTLDES":"18047A","EPOCH":"2024-01-10 10:36:12","EPOCH_MICROSECONDS":"306240","MEAN_MOTION":"15.27811906","ECCENTRICITY":"0.0011761","INCLINATION":"88.9843","RA_OF_ASC_NODE":"320.9263","ARG_OF_PERICENTER":"332.668","MEAN_ANOMALY":"27.3949","EPHEMERIS_TYPE":"0","ELEMENT_SET_NO":"999","REV_AT_EPOCH":"31362","BSTAR":"0.000163","MEAN_MOTION_DOT":"0.00004461","MEAN_MOTION_DDOT":"0","FILE":"4158336","TLE_LINE0":"0 GRACE-FO 1","TLE_LINE1":"1 43476U 18047A   24010.44180910  .00004461  00000-0  16300-3 0  9996","TLE_LINE2":"2 43476  88.9843 320.9263 0011761 332.6680  27.3949 15.27811906313624","OBJECT_ID":"2018-047A","OBJECT_NUMBER":"43476","SEMIMAJOR_AXIS":"6860.492","PERIOD":"94.252","APOGEE":"490.425","PERIGEE":"474.288","DECAYED":"0"},{"COMMENT":"GENERATED VIA SPACETRACK.ORG API","ORIGINATOR":"18 SPCS","NORAD_CAT_ID":"43476","OBJECT_NAME":"GRACE-FO 1","OBJECT_TYPE":"PAYLOAD","CLASSIFICATION_TYPE":"U","INTLDES":"18047A","EPOCH":"2024-01-11 02:19:23","EPOCH_MICROSECONDS":"148480","MEAN_MOTION":"15.27819556","ECCENTRICITY":"0.0011609","INCLINATION":"88.9846","RA_OF_ASC_NODE":"320.8365","ARG_OF_PERICENTER":"329.7966","MEAN_ANOMALY":"30.2613","EPHEMERIS_TYPE":"0","ELEMENT_SET_NO":"999","REV_AT_EPOCH":"31372","BSTAR":"0.0001815","MEAN_MOTION_DOT":"0.00004964","MEAN_MOTION_DDOT":"0","FILE":"4158701","TLE_LINE0":"0 GRACE-FO 1","TLE_LINE1":"1 43476U 18047A   24011.09679570  .00004964  00000-0  18150-3 0  9996","TLE_LINE2":"2 43476  88.9846 320.8365 0011609 329.7966  30.2613 15.27819556313725","OBJECT_ID":"2018-047A","OBJECT_NUMBER":"43476","SEMIMAJOR_AXIS":"6860.469","PERIOD":"94.252","APOGEE":"490.298","PERIGEE":"474.370","DECAYED":"0"}]